{
  "type": "FeatureCollection",
  "features": [
    {
      "type": "Feature",
      "properties": {
        "norad_id": 66654,
        "name": "JACK E",
        "group": "last-30-days",
        "lat": 32.034774121082236,
        "lon": -80.91757435837022,
        "alt_km": 597.9679695855821,
        "timestamp": "2025-12-22T22:44:19.649591+00:00",
        "meta_object_name": "JACK E",
        "meta_object_id": "2025-274E",
        "meta_epoch": "2025-12-22T14:32:48.168384",
        "meta_mean_motion": 14.92130959,
        "meta_eccentricity": 0.00122345,
        "meta_inclination": 97.7406,
        "meta_ra_of_asc_node": 283.6294,
        "meta_arg_of_pericenter": 218.6973,
        "meta_mean_anomaly": 141.3371,
        "meta_ephemeris_type": 0,
        "meta_classification_type": "U",
        "meta_norad_cat_id": 66654,
        "meta_element_set_no": 999,
        "meta_rev_at_epoch": 387,
        "meta_bstar": 0.00026617099,
        "meta_mean_motion_dot": 2.654e-05,
        "meta_mean_motion_ddot": 0,
        "tle_line1": "1 66654U 25274E   25356.60611306  .00002654  00000+0  26617-3 0  9992",
        "tle_line2": "2 66654  97.7406 283.6294 0012234 218.6973 141.3371 14.92130959  3875"
      },
      "geometry": {
        "type": "Point",
        "coordinates": [
          -80.91757435837022,
          32.034774121082236
        ]
      }
    },
    {
      "type": "Feature",
      "properties": {
        "norad_id": 66655,
        "name": "2025-274F",
        "group": "last-30-days",
        "lat": 1.1152908483422865,
        "lon": -76.20753357794466,
        "alt_km": 593.905140202748,
        "timestamp": "2025-12-22T22:44:19.649603+00:00",
        "meta_object_name": "2025-274F",
        "meta_object_id": "2025-274F",
        "meta_epoch": "2025-12-22T06:37:45.113376",
        "meta_mean_motion": 14.91180932,
        "meta_eccentricity": 0.00047771,
        "meta_inclination": 97.7336,
        "meta_ra_of_asc_node": 283.2862,
        "meta_arg_of_pericenter": 350.0852,
        "meta_mean_anomaly": 10.0272,
        "meta_ephemeris_type": 0,
        "meta_classification_type": "U",
        "meta_norad_cat_id": 66655,
        "meta_element_set_no": 999,
        "meta_rev_at_epoch": 382,
        "meta_bstar": 1.8004503e-05,
        "meta_mean_motion_dot": 1.24e-06,
        "meta_mean_motion_ddot": 0,
        "tle_line1": "1 66655U 25274F   25356.27621659  .00000124  00000+0  18005-4 0  9991",
        "tle_line2": "2 66655  97.7336 283.2862 0004777 350.0852  10.0272 14.91180932  3827"
      },
      "geometry": {
        "type": "Point",
        "coordinates": [
          -76.20753357794466,
          1.1152908483422865
        ]
      }
    },
    {
      "type": "Feature",
      "properties": {
        "norad_id": 66656,
        "name": "2025-274G",
        "group": "last-30-days",
        "lat": 49.46266368777918,
        "lon": -85.17977717047897,
        "alt_km": 594.9876557298821,
        "timestamp": "2025-12-22T22:44:19.649613+00:00",
        "meta_object_name": "2025-274G",
        "meta_object_id": "2025-274G",
        "meta_epoch": "2025-12-22T14:28:06.557088",
        "meta_mean_motion": 14.92326957,
        "meta_eccentricity": 0.00128151,
        "meta_inclination": 97.7403,
        "meta_ra_of_asc_node": 283.6329,
        "meta_arg_of_pericenter": 220.5886,
        "meta_mean_anomaly": 139.4379,
        "meta_ephemeris_type": 0,
        "meta_classification_type": "U",
        "meta_norad_cat_id": 66656,
        "meta_element_set_no": 999,
        "meta_rev_at_epoch": 387,
        "meta_bstar": 0.00028502138,
        "meta_mean_motion_dot": 2.861e-05,
        "meta_mean_motion_ddot": 0,
        "tle_line1": "1 66656U 25274G   25356.60285367  .00002861  00000+0  28502-3 0  9993",
        "tle_line2": "2 66656  97.7403 283.6329 0012815 220.5886 139.4379 14.92326957  3874"
      },
      "geometry": {
        "type": "Point",
        "coordinates": [
          -85.17977717047897,
          49.46266368777918
        ]
      }
    },
    {
      "type": "Feature",
      "properties": {
        "norad_id": 66657,
        "name": "SPIRONE",
        "group": "last-30-days",
        "lat": 65.82067614986502,
        "lon": -93.65535177789216,
        "alt_km": 591.2007413584497,
        "timestamp": "2025-12-22T22:44:19.649624+00:00",
        "meta_object_name": "SPIRONE",
        "meta_object_id": "2025-274H",
        "meta_epoch": "2025-12-22T12:47:05.415648",
        "meta_mean_motion": 14.9250499,
        "meta_eccentricity": 0.00108981,
        "meta_inclination": 97.74,
        "meta_ra_of_asc_node": 283.5704,
        "meta_arg_of_pericenter": 238.7766,
        "meta_mean_anomaly": 121.2386,
        "meta_ephemeris_type": 0,
        "meta_classification_type": "U",
        "meta_norad_cat_id": 66657,
        "meta_element_set_no": 999,
        "meta_rev_at_epoch": 386,
        "meta_bstar": 0.00026696713,
        "meta_mean_motion_dot": 2.687e-05,
        "meta_mean_motion_ddot": 0,
        "tle_line1": "1 66657U 25274H   25356.53270157  .00002687  00000+0  26697-3 0  9996",
        "tle_line2": "2 66657  97.7400 283.5704 0010898 238.7766 121.2386 14.92504990  3866"
      },
      "geometry": {
        "type": "Point",
        "coordinates": [
          -93.65535177789216,
          65.82067614986502
        ]
      }
    },
    {
      "type": "Feature",
      "properties": {
        "norad_id": 66658,
        "name": "2025-274J",
        "group": "last-30-days",
        "lat": 79.78429219713311,
        "lon": -125.01553899536815,
        "alt_km": 589.5609865089609,
        "timestamp": "2025-12-22T22:44:19.649636+00:00",
        "meta_object_name": "2025-274J",
        "meta_object_id": "2025-274J",
        "meta_epoch": "2025-12-22T14:19:19.060896",
        "meta_mean_motion": 14.92675271,
        "meta_eccentricity": 0.00114163,
        "meta_inclination": 97.74,
        "meta_ra_of_asc_node": 283.6404,
        "meta_arg_of_pericenter": 241.9122,
        "meta_mean_anomaly": 118.0943,
        "meta_ephemeris_type": 0,
        "meta_classification_type": "U",
        "meta_norad_cat_id": 66658,
        "meta_element_set_no": 999,
        "meta_rev_at_epoch": 387,
        "meta_bstar": 0.00025950266,
        "meta_mean_motion_dot": 2.622e-05,
        "meta_mean_motion_ddot": 0,
        "tle_line1": "1 66658U 25274J   25356.59674839  .00002622  00000+0  25950-3 0  9998",
        "tle_line2": "2 66658  97.7400 283.6404 0011416 241.9122 118.0943 14.92675271  3879"
      },
      "geometry": {
        "type": "Point",
        "coordinates": [
          -125.01553899536815,
          79.78429219713311
        ]
      }
    },
    {
      "type": "Feature",
      "properties": {
        "norad_id": 66659,
        "name": "JACK K",
        "group": "last-30-days",
        "lat": 76.73355271708557,
        "lon": 139.22427563910745,
        "alt_km": 588.4382926607177,
        "timestamp": "2025-12-22T22:44:19.649648+00:00",
        "meta_object_name": "JACK K",
        "meta_object_id": "2025-274K",
        "meta_epoch": "2025-12-21T17:19:56.315712",
        "meta_mean_motion": 14.9285397,
        "meta_eccentricity": 0.00120816,
        "meta_inclination": 97.7401,
        "meta_ra_of_asc_node": 282.7883,
        "meta_arg_of_pericenter": 246.938,
        "meta_mean_anomaly": 113.0566,
        "meta_ephemeris_type": 0,
        "meta_classification_type": "U",
        "meta_norad_cat_id": 66659,
        "meta_element_set_no": 999,
        "meta_rev_at_epoch": 374,
        "meta_bstar": 0.00017376058,
        "meta_mean_motion_dot": 1.745e-05,
        "meta_mean_motion_ddot": 0,
        "tle_line1": "1 66659U 25274K   25355.72217958  .00001745  00000+0  17376-3 0  9996",
        "tle_line2": "2 66659  97.7401 282.7883 0012081 246.9380 113.0566 14.92853970  3748"
      },
      "geometry": {
        "type": "Point",
        "coordinates": [
          139.22427563910745,
          76.73355271708557
        ]
      }
    },
    {
      "type": "Feature",
      "properties": {
        "norad_id": 66660,
        "name": "K-HERO",
        "group": "last-30-days",
        "lat": 63.915479701084294,
        "lon": 120.13203021280134,
        "alt_km": 587.8147886398692,
        "timestamp": "2025-12-22T22:44:19.649659+00:00",
        "meta_object_name": "K-HERO",
        "meta_object_id": "2025-274L",
        "meta_epoch": "2025-12-22T07:44:53.945376",
        "meta_mean_motion": 14.9300878,
        "meta_eccentricity": 0.0012681,
        "meta_inclination": 97.7407,
        "meta_ra_of_asc_node": 283.386,
        "meta_arg_of_pericenter": 245.4388,
        "meta_mean_anomaly": 114.5511,
        "meta_ephemeris_type": 0,
        "meta_classification_type": "U",
        "meta_norad_cat_id": 66660,
        "meta_element_set_no": 999,
        "meta_rev_at_epoch": 383,
        "meta_bstar": 0.00022428274,
        "meta_mean_motion_dot": 2.278e-05,
        "meta_mean_motion_ddot": 0,
        "tle_line1": "1 66660U 25274L   25356.32284659  .00002278  00000+0  22428-3 0  9993",
        "tle_line2": "2 66660  97.7407 283.3860 0012681 245.4388 114.5511 14.93008780  3834"
      },
      "geometry": {
        "type": "Point",
        "coordinates": [
          120.13203021280134,
          63.915479701084294
        ]
      }
    }
  ]
}